SENTINEL-6              
1 46984U 20086A   24173.21352674 -.00000029  00000+0  13957-3 0  9993
2 46984  66.0392 202.9074 0007944 270.2325  89.7780 12.80929052167469
